start=new Date('2022-03-29T00:00:00.000Z').valueOf();
sats=[{"APOAPSIS":"548.383","MEAN_ELEMENT_THEORY":"SGP4","GP_ID":"199942743","CENTER_NAME":"EARTH","RA_OF_ASC_NODE":"194.9000","SEMIMAJOR_AXIS":"6925.366","EPHEMERIS_TYPE":"0","COUNTRY_CODE":"US","BSTAR":"0.00001626500000","SITE":"AFETR","MEAN_ANOMALY":"305.0542","OBJECT_ID":"2021-040BL","MEAN_MOTION_DOT":"-0.00000039","MEAN_MOTION":"15.06394431","EPOCH":"2022-03-28T17:08:39.716448","TLE_LINE2":"2 48486  53.0558 194.9000 0001664  55.0603 305.0542 15.06394431 49005","REF_FRAME":"TEME","MEAN_MOTION_DDOT":"0.0000000000000","TIME_SYSTEM":"UTC","FILE":"3378342","OBJECT_TYPE":"PAYLOAD","DECAY_DATE":null,"ARG_OF_PERICENTER":"55.0603","CLASSIFICATION_TYPE":"U","NORAD_CAT_ID":"48486","RCS_SIZE":"LARGE","PERIAPSIS":"546.078","OBJECT_NAME":"STARLINK-2496","INCLINATION":"53.0558","ELEMENT_SET_NO":"999","LAUNCH_DATE":"2021-05-09","PERIOD":"95.592","TLE_LINE1":"1 48486U 21040BL  22087.71434857 -.00000039  00000-0  16265-4 0  9992","REV_AT_EPOCH":"4900","ECCENTRICITY":"0.00016640"},{"TIME_SYSTEM":"UTC","FILE":"3378342","DECAY_DATE":null,"ARG_OF_PERICENTER":"54.2582","OBJECT_TYPE":"PAYLOAD","NORAD_CAT_ID":"48487","RCS_SIZE":"LARGE","CLASSIFICATION_TYPE":"U","PERIAPSIS":"546.099","INCLINATION":"53.0532","OBJECT_NAME":"STARLINK-2494","ELEMENT_SET_NO":"999","LAUNCH_DATE":"2021-05-09","PERIOD":"95.592","REV_AT_EPOCH":"4902","TLE_LINE1":"1 48487U 21040BM  22087.78437368  .00001228  00000-0  10131-3 0  9995","ECCENTRICITY":"0.00015920","MEAN_ELEMENT_THEORY":"SGP4","APOAPSIS":"548.304","CENTER_NAME":"EARTH","GP_ID":"199943495","RA_OF_ASC_NODE":"194.5926","SEMIMAJOR_AXIS":"6925.336","EPHEMERIS_TYPE":"0","SITE":"AFETR","COUNTRY_CODE":"US","BSTAR":"0.00010131000000","MEAN_ANOMALY":"305.8555","OBJECT_ID":"2021-040BM","MEAN_MOTION_DOT":"0.00001228","MEAN_MOTION":"15.06404006","EPOCH":"2022-03-28T18:49:29.885952","TLE_LINE2":"2 48487  53.0532 194.5926 0001592  54.2582 305.8555 15.06404006 49022","MEAN_MOTION_DDOT":"0.0000000000000","REF_FRAME":"TEME"},{"TIME_SYSTEM":"UTC","FILE":"3378342","OBJECT_TYPE":"PAYLOAD","ARG_OF_PERICENTER":"69.6196","DECAY_DATE":null,"CLASSIFICATION_TYPE":"U","RCS_SIZE":"LARGE","NORAD_CAT_ID":"48553","PERIAPSIS":"546.137","OBJECT_NAME":"STARLINK-2063","INCLINATION":"53.0533","ELEMENT_SET_NO":"999","LAUNCH_DATE":"2021-05-15","PERIOD":"95.591","TLE_LINE1":"1 48553U 21041A   22087.56230371  .00007113  00000-0  49579-3 0  9998","REV_AT_EPOCH":"4784","ECCENTRICITY":"0.00015080","APOAPSIS":"548.226","MEAN_ELEMENT_THEORY":"SGP4","GP_ID":"199943753","CENTER_NAME":"EARTH","RA_OF_ASC_NODE":"125.5886","SEMIMAJOR_AXIS":"6925.317","EPHEMERIS_TYPE":"0","COUNTRY_CODE":"US","BSTAR":"0.00049579000000","SITE":"AFETR","MEAN_ANOMALY":"290.4955","OBJECT_ID":"2021-041A","MEAN_MOTION":"15.06410370","MEAN_MOTION_DOT":"0.00007113","EPOCH":"2022-03-28T13:29:43.040544","TLE_LINE2":"2 48553  53.0533 125.5886 0001508  69.6196 290.4955 15.06410370 47846","REF_FRAME":"TEME","MEAN_MOTION_DDOT":"0.0000000000000"},{"DECAY_DATE":null,"ARG_OF_PERICENTER":"83.5543","OBJECT_TYPE":"PAYLOAD","NORAD_CAT_ID":"48554","RCS_SIZE":"LARGE","CLASSIFICATION_TYPE":"U","TIME_SYSTEM":"UTC","FILE":"3377801","LAUNCH_DATE":"2021-05-15","PERIOD":"95.592","REV_AT_EPOCH":"4783","TLE_LINE1":"1 48554U 21041B   22087.50334077  .00007709  00000-0  53578-3 0  9996","ECCENTRICITY":"0.00014830","PERIAPSIS":"546.165","INCLINATION":"53.0534","OBJECT_NAME":"STARLINK-2139","ELEMENT_SET_NO":"999","SEMIMAJOR_AXIS":"6925.327","EPHEMERIS_TYPE":"0","SITE":"AFETR","COUNTRY_CODE":"US","BSTAR":"0.00053578000000","MEAN_ANOMALY":"276.5615","MEAN_ELEMENT_THEORY":"SGP4","APOAPSIS":"548.219","CENTER_NAME":"EARTH","GP_ID":"199904776","RA_OF_ASC_NODE":"125.8502","EPOCH":"2022-03-28T12:04:48.642528","TLE_LINE2":"2 48554  53.0534 125.8502 0001483  83.5543 276.5615 15.06406993 47832","MEAN_MOTION_DDOT":"0.0000000000000","REF_FRAME":"TEME","OBJECT_ID":"2021-041B","MEAN_MOTION":"15.06406993","MEAN_MOTION_DOT":"0.00007709"},{"INCLINATION":"53.0537","OBJECT_NAME":"STARLINK-2145","PERIAPSIS":"546.006","ELEMENT_SET_NO":"999","PERIOD":"95.592","LAUNCH_DATE":"2021-05-15","ECCENTRICITY":"0.00017290","REV_AT_EPOCH":"4814","TLE_LINE1":"1 48555U 21041C   22087.53188840  .00002509  00000-0  18726-3 0  9994","TIME_SYSTEM":"UTC","FILE":"3378037","NORAD_CAT_ID":"48555","RCS_SIZE":"LARGE","CLASSIFICATION_TYPE":"U","ARG_OF_PERICENTER":"62.4359","DECAY_DATE":null,"OBJECT_TYPE":"PAYLOAD","OBJECT_ID":"2021-041C","MEAN_MOTION_DOT":"0.00002509","MEAN_MOTION":"15.06403348","TLE_LINE2":"2 48555  53.0537 135.7226 0001729  62.4359 297.6806 15.06403348 48145","EPOCH":"2022-03-28T12:45:55.157760","MEAN_MOTION_DDOT":"0.0000000000000","REF_FRAME":"TEME","MEAN_ELEMENT_THEORY":"SGP4","APOAPSIS":"548.401","RA_OF_ASC_NODE":"135.7226","CENTER_NAME":"EARTH","GP_ID":"199914650","EPHEMERIS_TYPE":"0","SEMIMAJOR_AXIS":"6925.338","MEAN_ANOMALY":"297.6806","SITE":"AFETR","COUNTRY_CODE":"US","BSTAR":"0.00018726000000"},{"MEAN_MOTION_DOT":"0.00005171","MEAN_MOTION":"15.06408152","OBJECT_ID":"2021-041D","REF_FRAME":"TEME","MEAN_MOTION_DDOT":"0.0000000000000","EPOCH":"2022-03-28T15:41:04.904736","TLE_LINE2":"2 48556  53.0533 135.1774 0001686  59.8422 300.2734 15.06408152 47718","GP_ID":"199943503","CENTER_NAME":"EARTH","RA_OF_ASC_NODE":"135.1774","APOAPSIS":"548.356","MEAN_ELEMENT_THEORY":"SGP4","COUNTRY_CODE":"US","BSTAR":"0.00036571000000","SITE":"AFETR","MEAN_ANOMALY":"300.2734","SEMIMAJOR_AXIS":"6925.324","EPHEMERIS_TYPE":"0","ELEMENT_SET_NO":"999","PERIAPSIS":"546.021","OBJECT_NAME":"STARLINK-2151","INCLINATION":"53.0533","TLE_LINE1":"1 48556U 21041D   22087.65352899  .00005171  00000-0  36571-3 0  9991","REV_AT_EPOCH":"4771","ECCENTRICITY":"0.00016860","LAUNCH_DATE":"2021-05-15","PERIOD":"95.592","FILE":"3378342","TIME_SYSTEM":"UTC","OBJECT_TYPE":"PAYLOAD","ARG_OF_PERICENTER":"59.8422","DECAY_DATE":null,"CLASSIFICATION_TYPE":"U","RCS_SIZE":"LARGE","NORAD_CAT_ID":"48556"},{"EPOCH":"2022-03-28T18:58:47.505504","TLE_LINE2":"2 48557  53.0535 124.5656 0001608  66.5174 293.5983 15.06409565 47871","REF_FRAME":"TEME","MEAN_MOTION_DDOT":"0.0000000000000","OBJECT_ID":"2021-041E","MEAN_MOTION_DOT":"0.00004299","MEAN_MOTION":"15.06409565","SEMIMAJOR_AXIS":"6925.319","EPHEMERIS_TYPE":"0","COUNTRY_CODE":"US","BSTAR":"0.00030725000000","SITE":"AFETR","MEAN_ANOMALY":"293.5983","APOAPSIS":"548.298","MEAN_ELEMENT_THEORY":"SGP4","GP_ID":"199944254","CENTER_NAME":"EARTH","RA_OF_ASC_NODE":"124.5656","LAUNCH_DATE":"2021-05-15","PERIOD":"95.592","TLE_LINE1":"1 48557U 21041E   22087.79082761  .00004299  00000-0  30725-3 0  9990","REV_AT_EPOCH":"4787","ECCENTRICITY":"0.00016080","PERIAPSIS":"546.071","OBJECT_NAME":"STARLINK-2155","INCLINATION":"53.0535","ELEMENT_SET_NO":"999","OBJECT_TYPE":"PAYLOAD","DECAY_DATE":null,"ARG_OF_PERICENTER":"66.5174","CLASSIFICATION_TYPE":"U","NORAD_CAT_ID":"48557","RCS_SIZE":"LARGE","TIME_SYSTEM":"UTC","FILE":"3378342"},{"LAUNCH_DATE":"2021-05-15","PERIOD":"95.592","TLE_LINE1":"1 48558U 21041F   22087.78714371  .00003992  00000-0  28668-3 0  9991","REV_AT_EPOCH":"4701","ECCENTRICITY":"0.00015940","PERIAPSIS":"546.092","OBJECT_NAME":"STARLINK-2166","INCLINATION":"53.0533","ELEMENT_SET_NO":"999","OBJECT_TYPE":"PAYLOAD","DECAY_DATE":null,"ARG_OF_PERICENTER":"72.6900","CLASSIFICATION_TYPE":"U","RCS_SIZE":"LARGE","NORAD_CAT_ID":"48558","TIME_SYSTEM":"UTC","FILE":"3378342","EPOCH":"2022-03-28T18:53:29.216544","TLE_LINE2":"2 48558  53.0533 124.5738 0001594  72.6900 287.4263 15.06405771 47014","REF_FRAME":"TEME","MEAN_MOTION_DDOT":"0.0000000000000","OBJECT_ID":"2021-041F","MEAN_MOTION_DOT":"0.00003992","MEAN_MOTION":"15.06405771","SEMIMAJOR_AXIS":"6925.331","EPHEMERIS_TYPE":"0","BSTAR":"0.00028668000000","COUNTRY_CODE":"US","SITE":"AFETR","MEAN_ANOMALY":"287.4263","APOAPSIS":"548.300","MEAN_ELEMENT_THEORY":"SGP4","GP_ID":"199943002","CENTER_NAME":"EARTH","RA_OF_ASC_NODE":"124.5738"},{"ELEMENT_SET_NO":"999","PERIAPSIS":"545.959","OBJECT_NAME":"STARLINK-2167","INCLINATION":"53.0531","TLE_LINE1":"1 48559U 21041G   22087.82305807  .00001167  00000-0  97245-4 0  9997","REV_AT_EPOCH":"4787","ECCENTRICITY":"0.00018030","LAUNCH_DATE":"2021-05-15","PERIOD":"95.592","FILE":"3378342","TIME_SYSTEM":"UTC","OBJECT_TYPE":"PAYLOAD","ARG_OF_PERICENTER":"60.0704","DECAY_DATE":null,"CLASSIFICATION_TYPE":"U","NORAD_CAT_ID":"48559","RCS_SIZE":"LARGE","MEAN_MOTION":"15.06402086","MEAN_MOTION_DOT":"0.00001167","OBJECT_ID":"2021-041G","REF_FRAME":"TEME","MEAN_MOTION_DDOT":"0.0000000000000","EPOCH":"2022-03-28T19:45:12.217248","TLE_LINE2":"2 48559  53.0531 124.4000 0001803  60.0704 300.0464 15.06402086 47875","GP_ID":"199943252","CENTER_NAME":"EARTH","RA_OF_ASC_NODE":"124.4000","APOAPSIS":"548.456","MEAN_ELEMENT_THEORY":"SGP4","COUNTRY_CODE":"US","BSTAR":"0.00009724500000","SITE":"AFETR","MEAN_ANOMALY":"300.0464","SEMIMAJOR_AXIS":"6925.342","EPHEMERIS_TYPE":"0"},{"APOAPSIS":"548.177","MEAN_ELEMENT_THEORY":"SGP4","RA_OF_ASC_NODE":"93.9925","GP_ID":"199944004","CENTER_NAME":"EARTH","EPHEMERIS_TYPE":"0","SEMIMAJOR_AXIS":"6925.395","MEAN_ANOMALY":"142.1630","BSTAR":"0.00256250000000","COUNTRY_CODE":"US","SITE":"AFETR","OBJECT_ID":"2021-041J","MEAN_MOTION_DOT":"0.00038078","MEAN_MOTION":"15.06384713","TLE_LINE2":"2 48561  53.0516  93.9925 0001324  70.9430 142.1630 15.06384713  3587","EPOCH":"2022-03-28T22:00:00.999936","REF_FRAME":"TEME","MEAN_MOTION_DDOT":"0.0000000000000","TIME_SYSTEM":"UTC","FILE":"3378342","CLASSIFICATION_TYPE":"U","RCS_SIZE":"LARGE","NORAD_CAT_ID":"48561","OBJECT_TYPE":"PAYLOAD","ARG_OF_PERICENTER":"70.9430","DECAY_DATE":null,"OBJECT_NAME":"STARLINK-2186","INCLINATION":"53.0516","PERIAPSIS":"546.343","ELEMENT_SET_NO":"999","PERIOD":"95.593","LAUNCH_DATE":"2021-05-15","ECCENTRICITY":"0.00013240","TLE_LINE1":"1 48561U 21041J   22087.91667824  .00038078  00000-0  25625-2 0  9992","REV_AT_EPOCH":"358"}];
